{"type": "FeatureCollection", "features": [ {"type": "Feature", "properties": {"norad_id": 35469, "name": "COSMOS 2251 DEB", "group": "cosmos-2251-debris", "lat": 73.56606241304172, "lon": 85.41627216168403, "alt_km": 705.5827447900574, "timestamp": "2025-12-20T14:38:02.365283+00:00", "meta": {"OBJECT_NAME": "COSMOS 2251 DEB", "OBJECT_ID": "1993-036ALP", "EPOCH": "2025-12-19T18:21:45.886752", "MEAN_MOTION": 14.49825287, "ECCENTRICITY": 0.00765899, "INCLINATION": 74.0168, "RA_OF_ASC_NODE": 10.664, "ARG_OF_PERICENTER": 164.3143, "MEAN_ANOMALY": 196.0417, "EPHEMERIS_TYPE": 0, "CLASSIFICATION_TYPE": "U", "NORAD_CAT_ID": 35469, "ELEMENT_SET_NO": 999, "REV_AT_EPOCH": 88213, "BSTAR": 6.6708162e-05, "MEAN_MOTION_DOT": 2.38e-06, "MEAN_MOTION_DDOT": 0}, "tle": {"line1": "1 35469U 93036ALP 25353.76511443  .00000238  00000+0  66708-4 0  9990", "line2": "2 35469  74.0168  10.6640 0076589 164.3143 196.0417 14.49825287882139"}}, "geometry": {"type": "Point", "coordinates": [85.41627216168403, 73.56606241304172]}}, {"type": "Feature", "properties": {"norad_id": 35475, "name": "COSMOS 2251 DEB", "group": "cosmos-2251-debris", "lat": 32.54264344737713, "lon": -40.17750097905903, "alt_km": 655.9648968042138, "timestamp": "2025-12-20T14:38:02.365293+00:00", "meta": {"OBJECT_NAME": "COSMOS 2251 DEB", "OBJECT_ID": "1993-036ALV", "EPOCH": "2025-12-20T04:10:12.186624", "MEAN_MOTION": 14.69875936, "ECCENTRICITY": 0.00202744, "INCLINATION": 74.0213, "RA_OF_ASC_NODE": 151.2034, "ARG_OF_PERICENTER": 223.9843, "MEAN_ANOMALY": 135.9716, "EPHEMERIS_TYPE": 0, "CLASSIFICATION_TYPE": "U", "NORAD_CAT_ID": 35475, "ELEMENT_SET_NO": 999, "REV_AT_EPOCH": 65726, "BSTAR": 0.0012274408, "MEAN_MOTION_DOT": 7.339e-05, "MEAN_MOTION_DDOT": 0}, "tle": {"line1": "1 35475U 93036ALV 25354.17375216  .00007339  00000+0  12274-2 0  9995", "line2": "2 35475  74.0213 151.2034 0020274 223.9843 135.9716 14.69875936657261"}}, "geometry": {"type": "Point", "coordinates": [-40.17750097905903, 32.54264344737713]}}, {"type": "Feature", "properties": {"norad_id": 35476, "name": "COSMOS 2251 DEB", "group": "cosmos-2251-debris", "lat": 18.44858984242922, "lon": -140.03829003134007, "alt_km": 651.8058481836051, "timestamp": "2025-12-20T14:38:02.365302+00:00", "meta": {"OBJECT_NAME": "COSMOS 2251 DEB", "OBJECT_ID": "1993-036ALW", "EPOCH": "2025-12-20T04:26:15.503424", "MEAN_MOTION": 14.75816221, "ECCENTRICITY": 0.0018084, "INCLINATION": 73.9779, "RA_OF_ASC_NODE": 46.2965, "ARG_OF_PERICENTER": 24.5417, "MEAN_ANOMALY": 39.7285, "EPHEMERIS_TYPE": 0, "CLASSIFICATION_TYPE": "U", "NORAD_CAT_ID": 35476, "ELEMENT_SET_NO": 999, "REV_AT_EPOCH": 87997, "BSTAR": 0.00092006008, "MEAN_MOTION_DOT": 6.297e-05, "MEAN_MOTION_DDOT": 0}, "tle": {"line1": "1 35476U 93036ALW 25354.18490166  .00006297  00000+0  92006-3 0  9993", "line2": "2 35476  73.9779  46.2965 0018084  24.5417  39.7285 14.75816221879976"}}, "geometry": {"type": "Point", "coordinates": [-140.03829003134007, 18.44858984242922]}}, {"type": "Feature", "properties": {"norad_id": 35580, "name": "COSMOS 2251 DEB", "group": "cosmos-2251-debris", "lat": -0.3707705757332487, "lon": -14.552903123042224, "alt_km": 750.5211721822952, "timestamp": "2025-12-20T14:38:02.365312+00:00", "meta": {"OBJECT_NAME": "COSMOS 2251 DEB", "OBJECT_ID": "1993-036ALX", "EPOCH": "2025-12-20T05:05:49.813440", "MEAN_MOTION": 13.83906567, "ECCENTRICITY": 0.02808505, "INCLINATION": 73.9006, "RA_OF_ASC_NODE": 166.0156, "ARG_OF_PERICENTER": 169.8095, "MEAN_ANOMALY": 190.8895, "EPHEMERIS_TYPE": 0, "CLASSIFICATION_TYPE": "U", "NORAD_CAT_ID": 35580, "ELEMENT_SET_NO": 999, "REV_AT_EPOCH": 62360, "BSTAR": 0.0014817973, "MEAN_MOTION_DOT": 2.208e-05, "MEAN_MOTION_DDOT": 0}, "tle": {"line1": "1 35580U 93036ALX 25354.21238210  .00002208  00000+0  14818-2 0  9995", "line2": "2 35580  73.9006 166.0156 0280850 169.8095 190.8895 13.83906567623609"}}, "geometry": {"type": "Point", "coordinates": [-14.552903123042224, -0.3707705757332487]}}, {"type": "Feature", "properties": {"norad_id": 35583, "name": "COSMOS 2251 DEB", "group": "cosmos-2251-debris", "lat": 35.04857076552683, "lon": 7.585354822419884, "alt_km": 984.5016482290912, "timestamp": "2025-12-20T14:38:02.365322+00:00", "meta": {"OBJECT_NAME": "COSMOS 2251 DEB", "OBJECT_ID": "1993-036AMA", "EPOCH": "2025-12-19T23:43:19.645248", "MEAN_MOTION": 13.55347308, "ECCENTRICITY": 0.03851593, "INCLINATION": 73.9159, "RA_OF_ASC_NODE": 200.2682, "ARG_OF_PERICENTER": 223.2868, "MEAN_ANOMALY": 133.7385, "EPHEMERIS_TYPE": 0, "CLASSIFICATION_TYPE": "U", "NORAD_CAT_ID": 35583, "ELEMENT_SET_NO": 999, "REV_AT_EPOCH": 82510, "BSTAR": 0.00061703039, "MEAN_MOTION_DOT": 6.64e-06, "MEAN_MOTION_DDOT": 0}, "tle": {"line1": "1 35583U 93036AMA 25353.98842182  .00000664  00000+0  61703-3 0  9990", "line2": "2 35583  73.9159 200.2682 0385159 223.2868 133.7385 13.55347308825107"}}, "geometry": {"type": "Point", "coordinates": [7.585354822419884, 35.04857076552683]}}, {"type": "Feature", "properties": {"norad_id": 35585, "name": "COSMOS 2251 DEB", "group": "cosmos-2251-debris", "lat": -48.353118095464076, "lon": -43.58489543323611, "alt_km": 878.1620238979385, "timestamp": "2025-12-20T14:38:02.365332+00:00", "meta": {"OBJECT_NAME": "COSMOS 2251 DEB", "OBJECT_ID": "1993-036AMC", "EPOCH": "2025-12-18T09:07:12.258336", "MEAN_MOTION": 13.75264082, "ECCENTRICITY": 0.03105119, "INCLINATION": 73.9723, "RA_OF_ASC_NODE": 338.9941, "ARG_OF_PERICENTER": 250.1355, "MEAN_ANOMALY": 180.5614, "EPHEMERIS_TYPE": 0, "CLASSIFICATION_TYPE": "U", "NORAD_CAT_ID": 35585, "ELEMENT_SET_NO": 999, "REV_AT_EPOCH": 64141, "BSTAR": 0.00084480695, "MEAN_MOTION_DOT": 1.126e-05, "MEAN_MOTION_DDOT": 0}, "tle": {"line1": "1 35585U 93036AMC 25352.38000299  .00001126  00000+0  84481-3 0  9992", "line2": "2 35585  73.9723 338.9941 0310511 250.1355 180.5614 13.75264082641417"}}, "geometry": {"type": "Point", "coordinates": [-43.58489543323611, -48.353118095464076]}}, {"type": "Feature", "properties": {"norad_id": 35586, "name": "COSMOS 2251 DEB", "group": "cosmos-2251-debris", "lat": -20.496989415676982, "lon": 116.019345512811, "alt_km": 826.8203779280038, "timestamp": "2025-12-20T14:38:02.365343+00:00", "meta": {"OBJECT_NAME": "COSMOS 2251 DEB", "OBJECT_ID": "1993-036AMD", "EPOCH": "2025-12-18T14:35:36.885984", "MEAN_MOTION": 13.5208875, "ECCENTRICITY": 0.04044314, "INCLINATION": 74.0204, "RA_OF_ASC_NODE": 293.076, "ARG_OF_PERICENTER": 167.1463, "MEAN_ANOMALY": 11.7227, "EPHEMERIS_TYPE": 0, "CLASSIFICATION_TYPE": "U", "NORAD_CAT_ID": 35586, "ELEMENT_SET_NO": 999, "REV_AT_EPOCH": 60461, "BSTAR": 0.00023975249, "MEAN_MOTION_DOT": 2.44e-06, "MEAN_MOTION_DDOT": 0}, "tle": {"line1": "1 35586U 93036AMD 25352.60806581  .00000244  00000+0  23975-3 0  9997", "line2": "2 35586  74.0204 293.0760 0404431 167.1463  11.7227 13.52088750604613"}}, "geometry": {"type": "Point", "coordinates": [116.019345512811, -20.496989415676982]}}, {"type": "Feature", "properties": {"norad_id": 35587, "name": "COSMOS 2251 DEB", "group": "cosmos-2251-debris", "lat": -26.53963350228695, "lon": -128.66516048296086, "alt_km": 594.347328758291, "timestamp": "2025-12-20T14:38:02.365352+00:00", "meta": {"OBJECT_NAME": "COSMOS 2251 DEB", "OBJECT_ID": "1993-036AME", "EPOCH": "2025-12-19T21:22:17.268960", "MEAN_MOTION": 14.71544302, "ECCENTRICITY": 0.0102392, "INCLINATION": 74.0049, "RA_OF_ASC_NODE": 44.4984, "ARG_OF_PERICENTER": 230.5816, "MEAN_ANOMALY": 128.6259, "EPHEMERIS_TYPE": 0, "CLASSIFICATION_TYPE": "U", "NORAD_CAT_ID": 35587, "ELEMENT_SET_NO": 999, "REV_AT_EPOCH": 66451, "BSTAR": 0.00018067, "MEAN_MOTION_DOT": 1.181e-05, "MEAN_MOTION_DDOT": 0}, "tle": {"line1": "1 35587U 93036AME 25353.89047765  .00001181  00000+0  18067-3 0  9998", "line2": "2 35587  74.0049  44.4984 0102392 230.5816 128.6259 14.71544302664515"}}, "geometry": {"type": "Point", "coordinates": [-128.66516048296086, -26.53963350228695]}}, {"type": "Feature", "properties": {"norad_id": 35593, "name": "COSMOS 2251 DEB", "group": "cosmos-2251-debris", "lat": 56.88913681391213, "lon": 68.34122142500665, "alt_km": 871.2854068430634, "timestamp": "2025-12-20T14:38:02.365362+00:00", "meta": {"OBJECT_NAME": "COSMOS 2251 DEB", "OBJECT_ID": "1993-036AML", "EPOCH": "2025-12-20T03:57:49.308192", "MEAN_MOTION": 14.2562311, "ECCENTRICITY": 0.01050867, "INCLINATION": 74.0862, "RA_OF_ASC_NODE": 275.0836, "ARG_OF_PERICENTER": 279.9354, "MEAN_ANOMALY": 78.9945, "EPHEMERIS_TYPE": 0, "CLASSIFICATION_TYPE": "U", "NORAD_CAT_ID": 35593, "ELEMENT_SET_NO": 999, "REV_AT_EPOCH": 85171, "BSTAR": 0.0005338344, "MEAN_MOTION_DOT": 1.314e-05, "MEAN_MOTION_DDOT": 0}, "tle": {"line1": "1 35593U 93036AML 25354.16515403  .00001314  00000+0  53383-3 0  9993", "line2": "2 35593  74.0862 275.0836 0105086 279.9354  78.9945 14.25623110851713"}}, "geometry": {"type": "Point", "coordinates": [68.34122142500665, 56.88913681391213]}}, {"type": "Feature", "properties": {"norad_id": 35594, "name": "COSMOS 2251 DEB", "group": "cosmos-2251-debris", "lat": 29.077595822961097, "lon": 99.92127056353398, "alt_km": 622.3250544063394, "timestamp": "2025-12-20T14:38:02.365391+00:00", "meta": {"OBJECT_NAME": "COSMOS 2251 DEB", "OBJECT_ID": "1993-036AMM", "EPOCH": "2025-12-17T17:07:08.312160", "MEAN_MOTION": 14.88085261, "ECCENTRICITY": 0.00295539, "INCLINATION": 73.8085, "RA_OF_ASC_NODE": 96.479, "ARG_OF_PERICENTER": 207.6965, "MEAN_ANOMALY": 152.2642, "EPHEMERIS_TYPE": 0, "CLASSIFICATION_TYPE": "U", "NORAD_CAT_ID": 35594, "ELEMENT_SET_NO": 999, "REV_AT_EPOCH": 88259, "BSTAR": 0.0013790172, "MEAN_MOTION_DOT": 0.00012773, "MEAN_MOTION_DDOT": 0}, "tle": {"line1": "1 35594U 93036AMM 25351.71329065  .00012773  00000+0  13790-2 0  9997", "line2": "2 35594  73.8085  96.4790 0029553 207.6965 152.2642 14.88085261882590"}}, "geometry": {"type": "Point", "coordinates": [99.92127056353398, 29.077595822961097]}}]}